NORAD_CAT_ID,OBJECT_NAME,OBJECT_TYPE,EPOCH,MEAN_MOTION,ECCENTRICITY,INCLINATION,RA_OF_ASC_NODE,ARG_OF_PERICENTER,MEAN_ANOMALY,BSTAR,MEAN_MOTION_DOT,MEAN_MOTION_DDOT,TLE_LINE0,TLE_LINE1,TLE_LINE2,SEMIMAJOR_AXIS,PERIOD,APOGEE,PERIGEE,DECAYED
52487.0,STARLINK-3902,PAYLOAD,2022-12-22 17:33:49,15.08868096,0.0002638,53.2169,274.7254,25.1375,334.9745,-0.00033761,-5.662e-05,0.0,0 STARLINK-3902,1 52487U 22049AN  22356.73182706 -.00005662  00000-0 -33761-3 0  9999,2 52487  53.2169 274.7254 0002638  25.1375 334.9745 15.08868096 36552,6917.795,95.436,541.484,537.835,0.0
52487.0,STARLINK-3902,PAYLOAD,2022-12-23 01:30:47,15.08823346,0.0002488,53.2168,273.2379,29.2909,330.8222,0.00012953,1.773e-05,0.0,0 STARLINK-3902,1 52487U 22049AN  22357.06305067  .00001773  00000-0  12953-3 0  9990,2 52487  53.2168 273.2379 0002488  29.2909 330.8222 15.08823346 35524,6917.931,95.439,541.5169999999998,538.075,0.0
52487.0,STARLINK-3902,PAYLOAD,2022-12-23 11:03:06,15.08827845,0.0002478,53.2168,271.4543,28.0431,332.0695,0.00014909,2.084e-05,0.0,0 STARLINK-3902,1 52487U 22049AN  22357.46049042  .00002084  00000-0  14909-3 0  9991,2 52487  53.2168 271.4543 0002478  28.0431 332.0695 15.08827845 36665,6917.918000000002,95.438,541.497,538.068,0.0
52487.0,STARLINK-3902,PAYLOAD,2022-12-23 19:00:02,15.08826382,0.0002506,53.2167,269.9678,30.3741,329.7396,5.306100000000001e-05,5.56e-06,0.0,0 STARLINK-3902,1 52487U 22049AN  22357.79169714  .00000556  00000-0  53061-4 0  9991,2 52487  53.2167 269.9678 0002506  30.3741 329.7396 15.08826382 36719,6917.922,95.438,541.521,538.053,0.0
52487.0,STARLINK-3902,PAYLOAD,2022-12-24 01:21:34,15.08834562,0.0002617,53.2165,268.7787,29.2622,330.8516,0.00011428,1.531e-05,0.0,0 STARLINK-3902,1 52487U 22049AN  22358.05665273  .00001531  00000-0  11428-3 0  9996,2 52487  53.2165 268.7787 0002617  29.2622 330.8516 15.08834562 35673,6917.897,95.438,541.572,537.952,0.0
52487.0,STARLINK-3902,PAYLOAD,2022-12-24 10:53:54,15.08817709,0.0002488,53.2165,266.9948,32.5604,327.5541,0.00038298,5.809e-05,0.0,0 STARLINK-3902,1 52487U 22049AN  22358.45410061  .00005809  00000-0  38298-3 0  9999,2 52487  53.2165 266.9948 0002488  32.5604 327.5541 15.08817709 35737,6917.949000000001,95.439,541.535,538.092,0.0
52487.0,STARLINK-3902,PAYLOAD,2022-12-24 20:26:11,15.08870941,0.0002516,53.2163,265.2103,22.3287,337.7815,-0.0002837,-4.805e-05,0.0,0 STARLINK-3902,1 52487U 22049AN  22358.85152082 -.00004805  00000-0 -28370-3 0  9996,2 52487  53.2163 265.2103 0002516  22.3287 337.7815 15.08870941 35796,6917.786,95.436,541.391,537.91,0.0
52487.0,STARLINK-3902,PAYLOAD,2022-12-25 02:47:44,15.08845457,0.0002634999999999,53.2159,264.0209,29.3765,330.7375,0.00025505,3.774e-05,0.0,0 STARLINK-3902,1 52487U 22049AN  22359.11648771  .00003774  00000-0  25505-3 0  9990,2 52487  53.2159 264.0209 0002635  29.3765 330.7375 15.08845457 35838,6917.864000000001,95.437,541.552,537.906,0.0
52487.0,STARLINK-3902,PAYLOAD,2022-12-25 18:41:36,15.08830974,0.0002543,53.2159,261.0466,28.7689,331.3443,2.5254e-05,1.13e-06,0.0,0 STARLINK-3902,1 52487U 22049AN  22359.77889673  .00000113  00000-0  25254-4 0  9996,2 52487  53.2159 261.0466 0002543  28.7689 331.3443 15.08830974 35938,6917.908,95.438,541.5319999999998,538.014,0.0
52487.0,STARLINK-3902,PAYLOAD,2022-12-26 10:35:27,15.08842397,0.0002641,53.216,258.0726,29.6474,330.4668,9.2981e-05,1.192e-05,0.0,0 STARLINK-3902,1 52487U 22049AN  22360.44129335  .00001192  00000-0  92981-4 0  9993,2 52487  53.2160 258.0726 0002641  29.6474 330.4668 15.08842397 37119,6917.873000000001,95.437,541.565,537.911,0.0
52487.0,STARLINK-3902,PAYLOAD,2022-12-26 16:57:00,15.08841624,0.0002679,53.216,256.883,30.7948,329.3201,4.4173e-05,4.15e-06,0.0,0 STARLINK-3902,1 52487U 22049AN  22360.70625440  .00000415  00000-0  44173-4 0  9997,2 52487  53.2160 256.8830 0002679  30.7948 329.3201 15.08841624 36077,6917.875,95.437,541.594,537.887,0.0
52487.0,STARLINK-3902,PAYLOAD,2022-12-27 12:01:37,15.08857124,0.0002653,53.2155,253.3142,31.6571,328.458,0.00024641,3.637e-05,0.0,0 STARLINK-3902,1 52487U 22049AN  22361.50112678  .00003637  00000-0  24641-3 0  9996,2 52487  53.2155 253.3142 0002653  31.6571 328.4580 15.08857124 36198,6917.828,95.436,541.528,537.8580000000002,0.0
52487.0,STARLINK-3902,PAYLOAD,2022-12-27 18:23:10,15.08850436,0.0002785,53.2157,252.1257,31.2858,328.83,0.00034391,5.191e-05,0.0,0 STARLINK-3902,1 52487U 22049AN  22361.76609102  .00005191  00000-0  34391-3 0  9997,2 52487  53.2157 252.1257 0002785  31.2858 328.8300 15.08850436 37312,6917.848000000001,95.437,541.64,537.7869999999998,0.0
52487.0,STARLINK-3902,PAYLOAD,2022-12-27 19:58:33,15.08852555,0.0002881,53.2152,251.8287,27.83,332.2845,0.00036877,5.588e-05,0.0,0 STARLINK-3902,1 52487U 22049AN  22361.83233022  .00005588  00000-0  36877-3 0  9990,2 52487  53.2152 251.8287 0002881  27.8300 332.2845 15.08852555 36244,6917.842,95.437,541.7,537.714,0.0
52487.0,STARLINK-3902,PAYLOAD,2022-12-28 11:52:24,15.08854396,0.0002373,53.2148,248.8537,35.77,324.3451,0.00024475,3.611e-05,0.0,0 STARLINK-3902,1 52487U 22049AN  22362.49472440  .00003611  00000-0  24475-3 0  9998,2 52487  53.2148 248.8537 0002373  35.7700 324.3451 15.08854396 37422,6917.8359999999975,95.437,541.3430000000002,538.06,0.0
52487.0,STARLINK-3902,PAYLOAD,2022-12-28 18:13:57,15.08837641,0.0002411,53.215,247.6646,29.9667,330.1462,-0.00015108,-2.692e-05,0.0,0 STARLINK-3902,1 52487U 22049AN  22362.75968835 -.00002692  00000-0 -15108-3 0  9998,2 52487  53.2150 247.6646 0002411  29.9667 330.1462 15.08837641 36388,6917.888000000001,95.438,541.4209999999998,538.085,0.0
52487.0,STARLINK-3902,PAYLOAD,2022-12-29 03:46:15,15.08837819,0.0002459,53.2152,245.8806,25.7945,334.3169,2.4268e-06,-2.5e-06,0.0,0 STARLINK-3902,1 52487U 22049AN  22363.15712866 -.00000250  00000-0  24268-5 0  9990,2 52487  53.2152 245.8806 0002459  25.7945 334.3169 15.08837819 37527,6917.887,95.438,541.453,538.0509999999998,0.0
52487.0,STARLINK-3902,PAYLOAD,2022-12-29 19:40:08,15.08827103,0.0002472,53.2145,242.9057,35.8365,324.2793,-3.2899e-05,-8.12e-06,0.0,0 STARLINK-3902,1 52487U 22049AN  22363.81953880 -.00000812  00000-0 -32899-4 0  9999,2 52487  53.2145 242.9057 0002472  35.8365 324.2793 15.08827103 36545,6917.92,95.438,541.495,538.075,0.0
52487.0,STARLINK-3902,PAYLOAD,2022-12-30 02:01:40,15.08832346,0.0002678,53.2149,241.7172,30.4449,329.6698,7.4751e-05,9.01e-06,0.0,0 STARLINK-3902,1 52487U 22049AN  22364.08450006  .00000901  00000-0  74751-4 0  9991,2 52487  53.2149 241.7172 0002678  30.4449 329.6698 15.08832346 37668,6917.904,95.438,541.621,537.9159999999998,0.0
52487.0,STARLINK-3902,PAYLOAD,2022-12-30 19:30:54,15.08852665,0.0002736,53.2152,238.4468,28.9558,331.1585,0.00058071,8.969e-05,0.0,0 STARLINK-3902,1 52487U 22049AN  22364.81313622  .00008969  00000-0  58071-3 0  9992,2 52487  53.2152 238.4468 0002736  28.9558 331.1585 15.08852665 36692,6917.842,95.437,541.599,537.814,0.0
52487.0,STARLINK-3902,PAYLOAD,2022-12-31 01:52:27,15.08874798,0.000276,53.2154,237.2569,30.0696,330.0454,0.0012638,0.00019902,0.0,0 STARLINK-3902,1 52487U 22049AN  22365.07809188  .00019902  00000-0  12638-2 0  9995,2 52487  53.2154 237.2569 0002760  30.0696 330.0454 15.08874798 36736,6917.774,95.435,541.548,537.73,0.0
52487.0,STARLINK-3902,PAYLOAD,2022-12-31 08:13:59,15.088688,0.0002809,53.2173,236.0676,29.7099,330.4052,0.00072798,0.00011326,0.0,0 STARLINK-3902,1 52487U 22049AN  22365.34304739  .00011326  00000-0  72798-3 0  9993,2 52487  53.2173 236.0676 0002809  29.7099 330.4052 15.08868800 36778,6917.792,95.436,541.601,537.714,0.0
52487.0,STARLINK-3902,PAYLOAD,2022-12-31 16:10:54,15.08869643,0.0002508,53.2154,234.5827,39.2881,320.8293,0.00045078,6.899e-05,0.0,0 STARLINK-3902,1 52487U 22049AN  22365.67424291  .00006899  00000-0  45078-3 0  9995,2 52487  53.2154 234.5827 0002508  39.2881 320.8293 15.08869643 37901,6917.79,95.436,541.39,537.92,0.0
52487.0,STARLINK-3902,PAYLOAD,2023-01-01 08:04:46,15.08834833,0.000271,53.2152,231.6061,32.4344,327.6814,-7.4295e-05,-1.471e-05,0.0,0 STARLINK-3902,1 52487U 22049AN  23001.33664916 -.00001471  00000-0 -74295-4 0  9993,2 52487  53.2152 231.6061 0002710  32.4344 327.6814 15.08834833 36929,6917.896,95.438,541.636,537.886,0.0
52487.0,STARLINK-3902,PAYLOAD,2023-01-01 23:58:38,15.08821907,0.0002624,53.2154,228.6332,30.8392,329.2754,0.00039178,5.949e-05,0.0,0 STARLINK-3902,1 52487U 22049AN  23001.99906171  .00005949  00000-0  39178-3 0  9999,2 52487  53.2154 228.6332 0002624  30.8392 329.2754 15.08821907 37028,6917.936,95.439,541.616,537.985,0.0
52487.0,STARLINK-3902,PAYLOAD,2023-01-02 07:55:35,15.08821479,0.0002832,53.2158,227.1464,33.5643,326.5528,0.00046362,7.094e-05,0.0,0 STARLINK-3902,1 52487U 22049AN  23002.33026755  .00007094  00000-0  46362-3 0  9995,2 52487  53.2158 227.1464 0002832  33.5643 326.5528 15.08821479 38150,6917.937,95.439,541.761,537.8430000000002,0.0
52487.0,STARLINK-3902,PAYLOAD,2023-01-02 17:27:54,15.08825862,0.0002839,53.2149,225.3619,33.18,326.9369,0.00036135,5.465e-05,0.0,0 STARLINK-3902,1 52487U 22049AN  23002.72771094  .00005465  00000-0  36135-3 0  9998,2 52487  53.2149 225.3619 0002839  33.1800 326.9369 15.08825862 38214,6917.924,95.438,541.753,537.825,0.0
52487.0,STARLINK-3902,PAYLOAD,2023-01-03 07:46:22,15.08836407,0.000283,53.2148,222.6857,34.3241,325.7933,0.00045745,6.999e-05,0.0,0 STARLINK-3902,1 52487U 22049AN  23003.32387317  .00006999  00000-0  45745-3 0  9996,2 52487  53.2148 222.6857 0002830  34.3241 325.7933 15.08836407 37221,6917.891,95.438,541.714,537.799,0.0
52487.0,STARLINK-3902,PAYLOAD,2023-01-04 07:37:09,15.08857116,0.0002845,53.2142,218.2257,34.573,325.5447,0.00062692,9.708e-05,0.0,0 STARLINK-3902,1 52487U 22049AN  23004.31746783  .00009708  00000-0  62692-3 0  9993,2 52487  53.2142 218.2257 0002845  34.5730 325.5447 15.08857116 38455,6917.828,95.436,541.661,537.725,0.0
